CCSDS_OMM_VERS = 2.0
CREATION_DATE  = 
ORIGINATOR     = 

OBJECT_NAME    = STARLINK-36253
OBJECT_ID      = 2026-040P
CENTER_NAME    = EARTH
REF_FRAME      = TEME
TIME_SYSTEM    = UTC
MEAN_ELEMENT_THEORY = SGP/SGP4

EPOCH          = 2026-03-24T22:00:00.999936
MEAN_MOTION    = 15.49588348
ECCENTRICITY   = .00020556
INCLINATION    = 97.2838
RA_OF_ASC_NODE = 32.7674
ARG_OF_PERICENTER = 103.0394
MEAN_ANOMALY   = 107.4463

EPHEMERIS_TYPE = 0
CLASSIFICATION_TYPE = U
NORAD_CAT_ID   = 68028
ELEMENT_SET_NO = 999
REV_AT_EPOCH   = 497
BSTAR          = -.2655214E-1
MEAN_MOTION_DOT = -.1322351E-1
MEAN_MOTION_DDOT = 0

CCSDS_OMM_VERS = 2.0
CREATION_DATE  = 
ORIGINATOR     = 

OBJECT_NAME    = STARLINK-36944
OBJECT_ID      = 2026-040Q
CENTER_NAME    = EARTH
REF_FRAME      = TEME
TIME_SYSTEM    = UTC
MEAN_ELEMENT_THEORY = SGP/SGP4

EPOCH          = 2026-03-24T20:31:17.566752
MEAN_MOTION    = 15.75236904
ECCENTRICITY   = .00013326
INCLINATION    = 97.2858
RA_OF_ASC_NODE = 33.0639
ARG_OF_PERICENTER = 123.7392
MEAN_ANOMALY   = 236.4000

EPHEMERIS_TYPE = 0
CLASSIFICATION_TYPE = U
NORAD_CAT_ID   = 68029
ELEMENT_SET_NO = 999
REV_AT_EPOCH   = 374
BSTAR          = .10739613E-2
MEAN_MOTION_DOT = .163492E-2
MEAN_MOTION_DDOT = 0

CCSDS_OMM_VERS = 2.0
CREATION_DATE  = 
ORIGINATOR     = 

OBJECT_NAME    = STARLINK-36942
OBJECT_ID      = 2026-040R
CENTER_NAME    = EARTH
REF_FRAME      = TEME
TIME_SYSTEM    = UTC
MEAN_ELEMENT_THEORY = SGP/SGP4

EPOCH          = 2026-03-24T14:24:21.924864
MEAN_MOTION    = 15.75286028
ECCENTRICITY   = .00025616
INCLINATION    = 97.2852
RA_OF_ASC_NODE = 32.8011
ARG_OF_PERICENTER = 68.6057
MEAN_ANOMALY   = 291.5481

EPHEMERIS_TYPE = 0
CLASSIFICATION_TYPE = U
NORAD_CAT_ID   = 68030
ELEMENT_SET_NO = 999
REV_AT_EPOCH   = 370
BSTAR          = .12828537E-2
MEAN_MOTION_DOT = .196511E-2
MEAN_MOTION_DDOT = 0

CCSDS_OMM_VERS = 2.0
CREATION_DATE  = 
ORIGINATOR     = 

OBJECT_NAME    = STARLINK-36913
OBJECT_ID      = 2026-040S
CENTER_NAME    = EARTH
REF_FRAME      = TEME
TIME_SYSTEM    = UTC
MEAN_ELEMENT_THEORY = SGP/SGP4

EPOCH          = 2026-03-24T09:48:54.021312
MEAN_MOTION    = 15.75273800
ECCENTRICITY   = .00010438
INCLINATION    = 97.2868
RA_OF_ASC_NODE = 32.6027
ARG_OF_PERICENTER = 136.4240
MEAN_ANOMALY   = 223.7108

EPHEMERIS_TYPE = 0
CLASSIFICATION_TYPE = U
NORAD_CAT_ID   = 68031
ELEMENT_SET_NO = 999
REV_AT_EPOCH   = 367
BSTAR          = .16456423E-2
MEAN_MOTION_DOT = .25368E-2
MEAN_MOTION_DDOT = 0

CCSDS_OMM_VERS = 2.0
CREATION_DATE  = 
ORIGINATOR     = 

OBJECT_NAME    = STARLINK-36935
OBJECT_ID      = 2026-040T
CENTER_NAME    = EARTH
REF_FRAME      = TEME
TIME_SYSTEM    = UTC
MEAN_ELEMENT_THEORY = SGP/SGP4

EPOCH          = 2026-03-24T14:16:14.202048
MEAN_MOTION    = 15.75239279
ECCENTRICITY   = .0002722
INCLINATION    = 97.2842
RA_OF_ASC_NODE = 32.8109
ARG_OF_PERICENTER = 94.5695
MEAN_ANOMALY   = 265.5881

EPHEMERIS_TYPE = 0
CLASSIFICATION_TYPE = U
NORAD_CAT_ID   = 68032
ELEMENT_SET_NO = 999
REV_AT_EPOCH   = 370
BSTAR          = .15735138E-2
MEAN_MOTION_DOT = .241869E-2
MEAN_MOTION_DDOT = 0

CCSDS_OMM_VERS = 2.0
CREATION_DATE  = 
ORIGINATOR     = 

OBJECT_NAME    = STARLINK-36947
OBJECT_ID      = 2026-040U
CENTER_NAME    = EARTH
REF_FRAME      = TEME
TIME_SYSTEM    = UTC
MEAN_ELEMENT_THEORY = SGP/SGP4

EPOCH          = 2026-03-24T14:22:20.004096
MEAN_MOTION    = 15.75261829
ECCENTRICITY   = .00028683
INCLINATION    = 97.2844
RA_OF_ASC_NODE = 32.8039
ARG_OF_PERICENTER = 66.2225
MEAN_ANOMALY   = 293.9340

EPHEMERIS_TYPE = 0
CLASSIFICATION_TYPE = U
NORAD_CAT_ID   = 68033
ELEMENT_SET_NO = 999
REV_AT_EPOCH   = 370
BSTAR          = .1081455E-2
MEAN_MOTION_DOT = .164857E-2
MEAN_MOTION_DDOT = 0

CCSDS_OMM_VERS = 2.0
CREATION_DATE  = 
ORIGINATOR     = 

OBJECT_NAME    = STARLINK-36939
OBJECT_ID      = 2026-040V
CENTER_NAME    = EARTH
REF_FRAME      = TEME
TIME_SYSTEM    = UTC
MEAN_ELEMENT_THEORY = SGP/SGP4

EPOCH          = 2026-03-24T14:18:16.251552
MEAN_MOTION    = 15.75292251
ECCENTRICITY   = .00031212
INCLINATION    = 97.2841
RA_OF_ASC_NODE = 32.8093
ARG_OF_PERICENTER = 75.2204
MEAN_ANOMALY   = 284.9407

EPHEMERIS_TYPE = 0
CLASSIFICATION_TYPE = U
NORAD_CAT_ID   = 68034
ELEMENT_SET_NO = 999
REV_AT_EPOCH   = 370
BSTAR          = .16957366E-2
MEAN_MOTION_DOT = .261891E-2
MEAN_MOTION_DDOT = 0

CCSDS_OMM_VERS = 2.0
CREATION_DATE  = 
ORIGINATOR     = 

OBJECT_NAME    = STARLINK-36943
OBJECT_ID      = 2026-040W
CENTER_NAME    = EARTH
REF_FRAME      = TEME
TIME_SYSTEM    = UTC
MEAN_ELEMENT_THEORY = SGP/SGP4

EPOCH          = 2026-03-24T22:00:00.999936
MEAN_MOTION    = 15.75203878
ECCENTRICITY   = .00017927
INCLINATION    = 97.2848
RA_OF_ASC_NODE = 33.1525
ARG_OF_PERICENTER = 121.0782
MEAN_ANOMALY   = 262.1780

EPHEMERIS_TYPE = 0
CLASSIFICATION_TYPE = U
NORAD_CAT_ID   = 68035
ELEMENT_SET_NO = 999
REV_AT_EPOCH   = 492
BSTAR          = -.87842093E-4
MEAN_MOTION_DOT = -.1322E-3
MEAN_MOTION_DDOT = 0

CCSDS_OMM_VERS = 2.0
CREATION_DATE  = 
ORIGINATOR     = 

OBJECT_NAME    = STARLINK-36906
OBJECT_ID      = 2026-040X
CENTER_NAME    = EARTH
REF_FRAME      = TEME
TIME_SYSTEM    = UTC
MEAN_ELEMENT_THEORY = SGP/SGP4

EPOCH          = 2026-03-24T18:53:43.196928
MEAN_MOTION    = 15.75358156
ECCENTRICITY   = .00054787
INCLINATION    = 97.2837
RA_OF_ASC_NODE = 33.0086
ARG_OF_PERICENTER = 78.2266
MEAN_ANOMALY   = 281.9614

EPHEMERIS_TYPE = 0
CLASSIFICATION_TYPE = U
NORAD_CAT_ID   = 68036
ELEMENT_SET_NO = 999
REV_AT_EPOCH   = 373
BSTAR          = .20407292E-2
MEAN_MOTION_DOT = .31833E-2
MEAN_MOTION_DDOT = 0

CCSDS_OMM_VERS = 2.0
CREATION_DATE  = 
ORIGINATOR     = 

OBJECT_NAME    = STARLINK-36388
OBJECT_ID      = 2026-040Y
CENTER_NAME    = EARTH
REF_FRAME      = TEME
TIME_SYSTEM    = UTC
MEAN_ELEMENT_THEORY = SGP/SGP4

EPOCH          = 2026-03-24T09:42:48.578688
MEAN_MOTION    = 15.75259315
ECCENTRICITY   = .00018584
INCLINATION    = 97.2848
RA_OF_ASC_NODE = 32.6090
ARG_OF_PERICENTER = 94.2584
MEAN_ANOMALY   = 265.8893

EPHEMERIS_TYPE = 0
CLASSIFICATION_TYPE = U
NORAD_CAT_ID   = 68037
ELEMENT_SET_NO = 999
REV_AT_EPOCH   = 367
BSTAR          = .19246505E-2
MEAN_MOTION_DOT = .298087E-2
MEAN_MOTION_DDOT = 0

CCSDS_OMM_VERS = 2.0
CREATION_DATE  = 
ORIGINATOR     = 

OBJECT_NAME    = STARLINK-36895
OBJECT_ID      = 2026-040Z
CENTER_NAME    = EARTH
REF_FRAME      = TEME
TIME_SYSTEM    = UTC
MEAN_ELEMENT_THEORY = SGP/SGP4

EPOCH          = 2026-03-24T18:54:44.202240
MEAN_MOTION    = 15.75380380
ECCENTRICITY   = .00056759
INCLINATION    = 97.2835
RA_OF_ASC_NODE = 33.0049
ARG_OF_PERICENTER = 85.7919
MEAN_ANOMALY   = 274.3995

EPHEMERIS_TYPE = 0
CLASSIFICATION_TYPE = U
NORAD_CAT_ID   = 68038
ELEMENT_SET_NO = 999
REV_AT_EPOCH   = 373
BSTAR          = .22395097E-2
MEAN_MOTION_DOT = .351045E-2
MEAN_MOTION_DDOT = 0

CCSDS_OMM_VERS = 2.0
CREATION_DATE  = 
ORIGINATOR     = 

OBJECT_NAME    = STARLINK-36373
OBJECT_ID      = 2026-040AA
CENTER_NAME    = EARTH
REF_FRAME      = TEME
TIME_SYSTEM    = UTC
MEAN_ELEMENT_THEORY = SGP/SGP4

EPOCH          = 2026-03-24T18:55:45.226560
MEAN_MOTION    = 15.75359609
ECCENTRICITY   = .00054697
INCLINATION    = 97.2830
RA_OF_ASC_NODE = 33.0041
ARG_OF_PERICENTER = 72.1591
MEAN_ANOMALY   = 288.0271

EPHEMERIS_TYPE = 0
CLASSIFICATION_TYPE = U
NORAD_CAT_ID   = 68039
ELEMENT_SET_NO = 999
REV_AT_EPOCH   = 373
BSTAR          = .21000051E-2
MEAN_MOTION_DOT = .32797E-2
MEAN_MOTION_DDOT = 0

