STARLINK-36253          
1 68028U 26040P   26083.91667824 -.01322351  00000+0 -26552-1 0  9997
2 68028  97.2838  32.7674 0002055 103.0394 107.4463 15.49588348  4974
STARLINK-36944          
1 68029U 26040Q   26083.85506443  .00163492  00000+0  10740-2 0  9999
2 68029  97.2858  33.0639 0001332 123.7392 236.4000 15.75236904  3747
STARLINK-36942          
1 68030U 26040R   26083.60025376  .00196511  00000+0  12829-2 0  9993
2 68030  97.2852  32.8011 0002561  68.6057 291.5481 15.75286028  3707
STARLINK-36913          
1 68031U 26040S   26083.40895858  .00253680  00000+0  16456-2 0  9993
2 68031  97.2868  32.6027 0001043 136.4240 223.7108 15.75273800  3675
STARLINK-36935          
1 68032U 26040T   26083.59460882  .00241869  00000+0  15735-2 0  9994
2 68032  97.2842  32.8109 0002722  94.5695 265.5881 15.75239279  3702
STARLINK-36947          
1 68033U 26040U   26083.59884264  .00164857  00000+0  10815-2 0  9994
2 68033  97.2844  32.8039 0002868  66.2225 293.9340 15.75261829  3704
STARLINK-36939          
1 68034U 26040V   26083.59602143  .00261891  00000+0  16957-2 0  9998
2 68034  97.2841  32.8093 0003121  75.2204 284.9407 15.75292251  3709
STARLINK-36943          
1 68035U 26040W   26083.91667824 -.00013220  00000+0 -87842-4 0  9998
2 68035  97.2848  33.1525 0001792 121.0782 262.1780 15.75203878  4928
STARLINK-36906          
1 68036U 26040X   26083.78730552  .00318330  00000+0  20407-2 0  9993
2 68036  97.2837  33.0086 0005478  78.2266 281.9614 15.75358156  3736
STARLINK-36388          
1 68037U 26040Y   26083.40472892  .00298087  00000+0  19247-2 0  9999
2 68037  97.2848  32.6090 0001858  94.2584 265.8893 15.75259315  3678
STARLINK-36895          
1 68038U 26040Z   26083.78801160  .00351045  00000+0  22395-2 0  9997
2 68038  97.2835  33.0049 0005675  85.7919 274.3995 15.75380380  3734
STARLINK-36373          
1 68039U 26040AA  26083.78871790  .00327970  00000+0  21000-2 0  9996
2 68039  97.2830  33.0041 0005469  72.1591 288.0271 15.75359609  3738
